[{"OBJECT_NAME":"STARLINK-34282","OBJECT_ID":"2025-130S","EPOCH":"2026-03-09T08:00:31.318848","MEAN_MOTION":15.30208456,"ECCENTRICITY":9.774e-5,"INCLINATION":53.1593,"RA_OF_ASC_NODE":92.6673,"ARG_OF_PERICENTER":84.0879,"MEAN_ANOMALY":276.0233,"EPHEMERIS_TYPE":0,"CLASSIFICATION_TYPE":"U","NORAD_CAT_ID":64454,"ELEMENT_SET_NO":999,"REV_AT_EPOCH":4061,"BSTAR":0.00094858386,"MEAN_MOTION_DOT":0.00027848,"MEAN_MOTION_DDOT":0},{"OBJECT_NAME":"COSMOS 2535 DEB","OBJECT_ID":"2019-039M","EPOCH":"2026-03-08T03:25:35.903424","MEAN_MOTION":15.28322551,"ECCENTRICITY":0.0014917,"INCLINATION":97.5619,"RA_OF_ASC_NODE":139.2722,"ARG_OF_PERICENTER":329.0964,"MEAN_ANOMALY":30.9396,"EPHEMERIS_TYPE":0,"CLASSIFICATION_TYPE":"U","NORAD_CAT_ID":44641,"ELEMENT_SET_NO":999,"REV_AT_EPOCH":35167,"BSTAR":0.0011539757,"MEAN_MOTION_DOT":0.0003196,"MEAN_MOTION_DDOT":0}]
